{
  "type": "FeatureCollection",
  "features": [
    {
      "type": "Feature",
      "properties": {
        "norad_id": 38867,
        "name": "INTELSAT 23 (IS-23)",
        "group": "intelsat",
        "lat": -0.03369533458196832,
        "lon": 8.715813894132014,
        "alt_km": 35797.88441187231,
        "timestamp": "2025-12-11T22:43:46.939744+00:00",
        "meta_object_name": "INTELSAT 23 (IS-23)",
        "meta_object_id": "2012-057A",
        "meta_epoch": "2025-12-09T20:10:10.491744",
        "meta_mean_motion": 1.00260311,
        "meta_eccentricity": 0.00020064,
        "meta_inclination": 0.0432,
        "meta_ra_of_asc_node": 94.7791,
        "meta_arg_of_pericenter": 102.2636,
        "meta_mean_anomaly": 131.2856,
        "meta_ephemeris_type": 0,
        "meta_classification_type": "U",
        "meta_norad_cat_id": 38867,
        "meta_element_set_no": 999,
        "meta_rev_at_epoch": 4805,
        "meta_bstar": 0,
        "meta_mean_motion_dot": -2.82e-06,
        "meta_mean_motion_ddot": 0,
        "tle_line1": "1 38867U 12057A   25343.84039921 -.00000282  00000+0  00000+0 0  9991",
        "tle_line2": "2 38867   0.0432  94.7791 0002006 102.2636 131.2856  1.00260311 48055"
      },
      "geometry": {
        "type": "Point",
        "coordinates": [
          8.715813894132014,
          -0.03369533458196832
        ]
      }
    },
    {
      "type": "Feature",
      "properties": {
        "norad_id": 39360,
        "name": "FM-6",
        "group": "intelsat",
        "lat": -0.009579139561419323,
        "lon": -54.30155402805154,
        "alt_km": 35794.76923305756,
        "timestamp": "2025-12-11T22:43:46.939757+00:00",
        "meta_object_name": "FM-6",
        "meta_object_id": "2013-058A",
        "meta_epoch": "2025-12-10T23:15:42.718752",
        "meta_mean_motion": 1.00269361,
        "meta_eccentricity": 0.00028563,
        "meta_inclination": 0.0087,
        "meta_ra_of_asc_node": 66.7059,
        "meta_arg_of_pericenter": 106.8032,
        "meta_mean_anomaly": 139.1966,
        "meta_ephemeris_type": 0,
        "meta_classification_type": "U",
        "meta_norad_cat_id": 39360,
        "meta_element_set_no": 999,
        "meta_rev_at_epoch": 4418,
        "meta_bstar": 0,
        "meta_mean_motion_dot": -1.1e-07,
        "meta_mean_motion_ddot": 0,
        "tle_line1": "1 39360U 13058A   25344.96924443 -.00000011  00000+0  00000+0 0  9998",
        "tle_line2": "2 39360   0.0087  66.7059 0002856 106.8032 139.1966  1.00269361 44182"
      },
      "geometry": {
        "type": "Point",
        "coordinates": [
          -54.30155402805154,
          -0.009579139561419323
        ]
      }
    },
    {
      "type": "Feature",
      "properties": {
        "norad_id": 40271,
        "name": "INTELSAT 30 (IS-30)",
        "group": "intelsat",
        "lat": -0.020450938504753866,
        "lon": -33.24890353897544,
        "alt_km": 35788.91269302138,
        "timestamp": "2025-12-11T22:43:46.939770+00:00",
        "meta_object_name": "INTELSAT 30 (IS-30)",
        "meta_object_id": "2014-062A",
        "meta_epoch": "2025-12-10T19:56:16.820736",
        "meta_mean_motion": 1.00269622,
        "meta_eccentricity": 0.0001301,
        "meta_inclination": 0.0174,
        "meta_ra_of_asc_node": 29.1064,
        "meta_arg_of_pericenter": 50.969,
        "meta_mean_anomaly": 203.7271,
        "meta_ephemeris_type": 0,
        "meta_classification_type": "U",
        "meta_norad_cat_id": 40271,
        "meta_element_set_no": 999,
        "meta_rev_at_epoch": 489,
        "meta_bstar": 0,
        "meta_mean_motion_dot": -1.46e-06,
        "meta_mean_motion_ddot": 0,
        "tle_line1": "1 40271U 14062A   25344.83075024 -.00000146  00000+0  00000+0 0  9994",
        "tle_line2": "2 40271   0.0174  29.1064 0001301  50.9690 203.7271  1.00269622  4895"
      },
      "geometry": {
        "type": "Point",
        "coordinates": [
          -33.24890353897544,
          -0.020450938504753866
        ]
      }
    },
    {
      "type": "Feature",
      "properties": {
        "norad_id": 40333,
        "name": "DIRECTV 14",
        "group": "intelsat",
        "lat": -0.0036757658802528174,
        "lon": -37.37375848723892,
        "alt_km": 35788.03459364018,
        "timestamp": "2025-12-11T22:43:46.939783+00:00",
        "meta_object_name": "DIRECTV 14",
        "meta_object_id": "2014-078B",
        "meta_epoch": "2025-12-10T23:20:34.751616",
        "meta_mean_motion": 1.00270629,
        "meta_eccentricity": 5.243e-05,
        "meta_inclination": 0.0172,
        "meta_ra_of_asc_node": 324.7094,
        "meta_arg_of_pericenter": 220.9679,
        "meta_mean_anomaly": 145.1924,
        "meta_ephemeris_type": 0,
        "meta_classification_type": "U",
        "meta_norad_cat_id": 40333,
        "meta_element_set_no": 999,
        "meta_rev_at_epoch": 4015,
        "meta_bstar": 0,
        "meta_mean_motion_dot": -1.2e-06,
        "meta_mean_motion_ddot": 0,
        "tle_line1": "1 40333U 14078B   25344.97262444 -.00000120  00000+0  00000+0 0  9991",
        "tle_line2": "2 40333   0.0172 324.7094 0000524 220.9679 145.1924  1.00270629 40153"
      },
      "geometry": {
        "type": "Point",
        "coordinates": [
          -37.37375848723892,
          -0.0036757658802528174
        ]
      }
    },
    {
      "type": "Feature",
      "properties": {
        "norad_id": 40663,
        "name": "DIRECTV 15",
        "group": "intelsat",
        "lat": -0.037247029473979516,
        "lon": -41.01867228279032,
        "alt_km": 35785.498901715146,
        "timestamp": "2025-12-11T22:43:46.939796+00:00",
        "meta_object_name": "DIRECTV 15",
        "meta_object_id": "2015-026A",
        "meta_epoch": "2025-12-10T23:19:34.847904",
        "meta_mean_motion": 1.00272611,
        "meta_eccentricity": 2.214e-05,
        "meta_inclination": 0.0411,
        "meta_ra_of_asc_node": 85.413,
        "meta_arg_of_pericenter": 166.5843,
        "meta_mean_anomaly": 74.9718,
        "meta_ephemeris_type": 0,
        "meta_classification_type": "U",
        "meta_norad_cat_id": 40663,
        "meta_element_set_no": 999,
        "meta_rev_at_epoch": 3857,
        "meta_bstar": 0,
        "meta_mean_motion_dot": -9.7e-07,
        "meta_mean_motion_ddot": 0,
        "tle_line1": "1 40663U 15026A   25344.97193111 -.00000097  00000+0  00000+0 0  9998",
        "tle_line2": "2 40663   0.0411  85.4130 0000221 166.5843  74.9718  1.00272611 38575"
      },
      "geometry": {
        "type": "Point",
        "coordinates": [
          -41.01867228279032,
          -0.037247029473979516
        ]
      }
    },
    {
      "type": "Feature",
      "properties": {
        "norad_id": 40664,
        "name": "SKY MEXICO-1",
        "group": "intelsat",
        "lat": -0.027107497159638495,
        "lon": -16.905442984222933,
        "alt_km": 35781.87364964021,
        "timestamp": "2025-12-11T22:43:46.939808+00:00",
        "meta_object_name": "SKY MEXICO-1",
        "meta_object_id": "2015-026B",
        "meta_epoch": "2025-12-11T08:00:01.446048",
        "meta_mean_motion": 1.00270477,
        "meta_eccentricity": 0.00026887,
        "meta_inclination": 0.0327,
        "meta_ra_of_asc_node": 74.4408,
        "meta_arg_of_pericenter": 202.8128,
        "meta_mean_anomaly": 204.276,
        "meta_ephemeris_type": 0,
        "meta_classification_type": "U",
        "meta_norad_cat_id": 40664,
        "meta_element_set_no": 999,
        "meta_rev_at_epoch": 3857,
        "meta_bstar": 0,
        "meta_mean_motion_dot": -2.28e-06,
        "meta_mean_motion_ddot": 0,
        "tle_line1": "1 40664U 15026B   25345.33335007 -.00000228  00000+0  00000+0 0  9998",
        "tle_line2": "2 40664   0.0327  74.4408 0002688 202.8128 204.2760  1.00270477 38570"
      },
      "geometry": {
        "type": "Point",
        "coordinates": [
          -16.905442984222933,
          -0.027107497159638495
        ]
      }
    },
    {
      "type": "Feature",
      "properties": {
        "norad_id": 40874,
        "name": "INTELSAT 34 (IS-34)",
        "group": "intelsat",
        "lat": 0.01793226450309761,
        "lon": 6.3313964293294696,
        "alt_km": 35788.41109544095,
        "timestamp": "2025-12-11T22:43:46.939821+00:00",
        "meta_object_name": "INTELSAT 34 (IS-34)",
        "meta_object_id": "2015-039A",
        "meta_epoch": "2025-12-11T13:14:54.075264",
        "meta_mean_motion": 1.00269725,
        "meta_eccentricity": 4.576e-05,
        "meta_inclination": 0.0129,
        "meta_ra_of_asc_node": 327.2284,
        "meta_arg_of_pericenter": 191.9547,
        "meta_mean_anomaly": 64.5489,
        "meta_ephemeris_type": 0,
        "meta_classification_type": "U",
        "meta_norad_cat_id": 40874,
        "meta_element_set_no": 999,
        "meta_rev_at_epoch": 3774,
        "meta_bstar": 0,
        "meta_mean_motion_dot": -2.78e-06,
        "meta_mean_motion_ddot": 0,
        "tle_line1": "1 40874U 15039A   25345.55201476 -.00000278  00000+0  00000+0 0  9996",
        "tle_line2": "2 40874   0.0129 327.2284 0000457 191.9547  64.5489  1.00269725 37746"
      },
      "geometry": {
        "type": "Point",
        "coordinates": [
          6.3313964293294696,
          0.01793226450309761
        ]
      }
    }
  ]
}